start=new Date('2022-10-12T00:00:00.000Z').valueOf();
sats=[{"GP_ID":"214784283","TLE_LINE1":"1 50822U 22001V   22284.42984291 -.00006231  00000-0 -37384-3 0  9991","DECAY_DATE":null,"MEAN_MOTION_DOT":"-0.00006231","TIME_SYSTEM":"UTC","MEAN_MOTION_DDOT":"0.0000000000000","MEAN_ELEMENT_THEORY":"SGP4","SEMIMAJOR_AXIS":"6917.929","FILE":"3603543","PERIAPSIS":"538.105","LAUNCH_DATE":"2022-01-06","APOAPSIS":"541.483","REV_AT_EPOCH":"4241","OBJECT_ID":"2022-001V","MEAN_MOTION":"15.08824085","SITE":"AFETR","ECCENTRICITY":"0.00024420","MEAN_ANOMALY":"328.2248","OBJECT_TYPE":"PAYLOAD","ARG_OF_PERICENTER":"31.8891","NORAD_CAT_ID":"50822","ELEMENT_SET_NO":"999","CLASSIFICATION_TYPE":"U","REF_FRAME":"TEME","CENTER_NAME":"EARTH","RA_OF_ASC_NODE":"359.3263","OBJECT_NAME":"STARLINK-3343","PERIOD":"95.439","BSTAR":"-0.00037384000000","COUNTRY_CODE":"US","INCLINATION":"53.2173","EPHEMERIS_TYPE":"0","TLE_LINE2":"2 50822  53.2173 359.3263 0002442  31.8891 328.2248 15.08824085 42414","EPOCH":"2022-10-11T10:18:58.427424","RCS_SIZE":"LARGE"},{"DECAY_DATE":null,"GP_ID":"214824506","TLE_LINE1":"1 50823U 22001W   22284.52921936 -.00002998  00000-0 -17044-3 0  9997","MEAN_MOTION_DOT":"-0.00002998","TIME_SYSTEM":"UTC","MEAN_MOTION_DDOT":"0.0000000000000","SEMIMAJOR_AXIS":"6917.958","MEAN_ELEMENT_THEORY":"SGP4","LAUNCH_DATE":"2022-01-06","APOAPSIS":"540.997","PERIAPSIS":"538.650","FILE":"3604484","ECCENTRICITY":"0.00016960","SITE":"AFETR","REV_AT_EPOCH":"4243","MEAN_MOTION":"15.08814489","OBJECT_ID":"2022-001W","MEAN_ANOMALY":"315.5130","OBJECT_TYPE":"PAYLOAD","ELEMENT_SET_NO":"999","NORAD_CAT_ID":"50823","ARG_OF_PERICENTER":"44.5999","REF_FRAME":"TEME","CENTER_NAME":"EARTH","CLASSIFICATION_TYPE":"U","BSTAR":"-0.00017044000000","PERIOD":"95.439","OBJECT_NAME":"STARLINK-3334","RA_OF_ASC_NODE":"358.8752","EPHEMERIS_TYPE":"0","TLE_LINE2":"2 50823  53.2181 358.8752 0001696  44.5999 315.5130 15.08814489 42439","INCLINATION":"53.2181","COUNTRY_CODE":"US","RCS_SIZE":"LARGE","EPOCH":"2022-10-11T12:42:04.552704"},{"EPOCH":"2022-10-11T16:35:14.177184","RCS_SIZE":"LARGE","COUNTRY_CODE":"US","INCLINATION":"53.2176","TLE_LINE2":"2 50824  53.2176 358.1496 0001915  32.6373 327.4737 15.08817800 42457","EPHEMERIS_TYPE":"0","RA_OF_ASC_NODE":"358.1496","OBJECT_NAME":"STARLINK-3340","PERIOD":"95.439","BSTAR":"-0.00023576000000","CLASSIFICATION_TYPE":"U","REF_FRAME":"TEME","CENTER_NAME":"EARTH","ARG_OF_PERICENTER":"32.6373","NORAD_CAT_ID":"50824","ELEMENT_SET_NO":"999","OBJECT_TYPE":"PAYLOAD","MEAN_ANOMALY":"327.4737","OBJECT_ID":"2022-001X","MEAN_MOTION":"15.08817800","REV_AT_EPOCH":"4245","SITE":"AFETR","ECCENTRICITY":"0.00019150","FILE":"3604484","LAUNCH_DATE":"2022-01-06","APOAPSIS":"541.138","PERIAPSIS":"538.488","MEAN_ELEMENT_THEORY":"SGP4","SEMIMAJOR_AXIS":"6917.948","MEAN_MOTION_DDOT":"0.0000000000000","MEAN_MOTION_DOT":"-0.00004036","TIME_SYSTEM":"UTC","GP_ID":"214823254","TLE_LINE1":"1 50824U 22001X   22284.69113631 -.00004036  00000-0 -23576-3 0  9993","DECAY_DATE":null},{"COUNTRY_CODE":"US","INCLINATION":"53.2179","TLE_LINE2":"2 50825  53.2179 359.3001 0002055  32.7040 327.4079 15.08828276 42418","EPHEMERIS_TYPE":"0","RA_OF_ASC_NODE":"359.3001","OBJECT_NAME":"STARLINK-3332","PERIOD":"95.438","BSTAR":"-0.00002502400000","EPOCH":"2022-10-11T10:24:17.091360","RCS_SIZE":"LARGE","OBJECT_TYPE":"PAYLOAD","MEAN_ANOMALY":"327.4079","CLASSIFICATION_TYPE":"U","CENTER_NAME":"EARTH","REF_FRAME":"TEME","ARG_OF_PERICENTER":"32.7040","NORAD_CAT_ID":"50825","ELEMENT_SET_NO":"999","OBJECT_ID":"2022-001Y","MEAN_MOTION":"15.08828276","REV_AT_EPOCH":"4241","SITE":"AFETR","ECCENTRICITY":"0.00020550","FILE":"3603543","LAUNCH_DATE":"2022-01-06","APOAPSIS":"541.203","PERIAPSIS":"538.360","MEAN_MOTION_DOT":"-0.00000686","TIME_SYSTEM":"UTC","GP_ID":"214784033","TLE_LINE1":"1 50825U 22001Y   22284.43353115 -.00000686  00000-0 -25024-4 0  9997","DECAY_DATE":null,"MEAN_ELEMENT_THEORY":"SGP4","SEMIMAJOR_AXIS":"6917.916","MEAN_MOTION_DDOT":"0.0000000000000"},{"CLASSIFICATION_TYPE":"U","CENTER_NAME":"EARTH","REF_FRAME":"TEME","NORAD_CAT_ID":"50826","ELEMENT_SET_NO":"999","ARG_OF_PERICENTER":"47.9226","OBJECT_TYPE":"PAYLOAD","MEAN_ANOMALY":"312.1912","RCS_SIZE":"LARGE","EPOCH":"2022-10-11T14:38:38.072832","INCLINATION":"53.2189","EPHEMERIS_TYPE":"0","TLE_LINE2":"2 50826  53.2189 358.4897 0001722  47.9226 312.1912 15.08842560 42449","COUNTRY_CODE":"US","PERIOD":"95.437","BSTAR":"-0.00010571000000","RA_OF_ASC_NODE":"358.4897","OBJECT_NAME":"STARLINK-3337","SEMIMAJOR_AXIS":"6917.873","MEAN_ELEMENT_THEORY":"SGP4","MEAN_MOTION_DDOT":"0.0000000000000","MEAN_MOTION_DOT":"-0.00001970","TIME_SYSTEM":"UTC","DECAY_DATE":null,"TLE_LINE1":"1 50826U 22001Z   22284.61016288 -.00001970  00000-0 -10571-3 0  9992","GP_ID":"214824256","SITE":"AFETR","ECCENTRICITY":"0.00017220","OBJECT_ID":"2022-001Z","MEAN_MOTION":"15.08842560","REV_AT_EPOCH":"4244","LAUNCH_DATE":"2022-01-06","PERIAPSIS":"538.546","APOAPSIS":"540.929","FILE":"3604484"},{"CLASSIFICATION_TYPE":"U","CENTER_NAME":"EARTH","REF_FRAME":"TEME","NORAD_CAT_ID":"50827","ELEMENT_SET_NO":"999","ARG_OF_PERICENTER":"39.2290","OBJECT_TYPE":"PAYLOAD","MEAN_ANOMALY":"320.8837","RCS_SIZE":"LARGE","EPOCH":"2022-10-11T13:50:57.690240","INCLINATION":"53.2185","TLE_LINE2":"2 50827  53.2185 358.6597 0001868  39.2290 320.8837 15.08831987 42433","EPHEMERIS_TYPE":"0","COUNTRY_CODE":"US","PERIOD":"95.438","BSTAR":"-0.00010681000000","RA_OF_ASC_NODE":"358.6597","OBJECT_NAME":"STARLINK-3329","SEMIMAJOR_AXIS":"6917.905","MEAN_ELEMENT_THEORY":"SGP4","MEAN_MOTION_DDOT":"0.0000000000000","TIME_SYSTEM":"UTC","MEAN_MOTION_DOT":"-0.00001987","DECAY_DATE":null,"GP_ID":"214824007","TLE_LINE1":"1 50827U 22001AA  22284.57705660 -.00001987  00000-0 -10681-3 0  9997","SITE":"AFETR","ECCENTRICITY":"0.00018680","OBJECT_ID":"2022-001AA","REV_AT_EPOCH":"4243","MEAN_MOTION":"15.08831987","APOAPSIS":"541.062","LAUNCH_DATE":"2022-01-06","PERIAPSIS":"538.478","FILE":"3604484"},{"REV_AT_EPOCH":"4226","OBJECT_ID":"2022-001AB","MEAN_MOTION":"15.08839440","SITE":"AFETR","ECCENTRICITY":"0.00021360","FILE":"3603543","PERIAPSIS":"538.269","LAUNCH_DATE":"2022-01-06","APOAPSIS":"541.225","MEAN_ELEMENT_THEORY":"SGP4","SEMIMAJOR_AXIS":"6917.882","MEAN_MOTION_DDOT":"0.0000000000000","MEAN_MOTION_DOT":"0.00000406","TIME_SYSTEM":"UTC","GP_ID":"214782782","TLE_LINE1":"1 50828U 22001AB  22284.44185296  .00000406  00000-0  43631-4 0  9996","DECAY_DATE":null,"EPOCH":"2022-10-11T10:36:16.095744","RCS_SIZE":"LARGE","COUNTRY_CODE":"US","INCLINATION":"53.2191","EPHEMERIS_TYPE":"0","TLE_LINE2":"2 50828  53.2191 359.2671 0002136  35.0471 325.0662 15.08839440 42261","RA_OF_ASC_NODE":"359.2671","OBJECT_NAME":"STARLINK-3290","PERIOD":"95.438","BSTAR":"0.00004363100000","CLASSIFICATION_TYPE":"U","REF_FRAME":"TEME","CENTER_NAME":"EARTH","ARG_OF_PERICENTER":"35.0471","NORAD_CAT_ID":"50828","ELEMENT_SET_NO":"999","OBJECT_TYPE":"PAYLOAD","MEAN_ANOMALY":"325.0662"},{"MEAN_MOTION":"15.08819242","OBJECT_ID":"2022-001AC","REV_AT_EPOCH":"4243","ECCENTRICITY":"0.00019560","SITE":"AFETR","FILE":"3604484","LAUNCH_DATE":"2022-01-06","APOAPSIS":"541.162","PERIAPSIS":"538.456","MEAN_ELEMENT_THEORY":"SGP4","SEMIMAJOR_AXIS":"6917.944","MEAN_MOTION_DDOT":"0.0000000000000","MEAN_MOTION_DOT":"-0.00006416","TIME_SYSTEM":"UTC","TLE_LINE1":"1 50829U 22001AC  22284.58440667 -.00006416  00000-0 -38556-3 0  9996","GP_ID":"214823505","DECAY_DATE":null,"EPOCH":"2022-10-11T14:01:32.736288","RCS_SIZE":"LARGE","COUNTRY_CODE":"US","TLE_LINE2":"2 50829  53.2189 358.6238 0001956  39.7845 320.3291 15.08819242 42439","EPHEMERIS_TYPE":"0","INCLINATION":"53.2189","OBJECT_NAME":"STARLINK-3294","RA_OF_ASC_NODE":"358.6238","BSTAR":"-0.00038556000000","PERIOD":"95.439","CENTER_NAME":"EARTH","REF_FRAME":"TEME","CLASSIFICATION_TYPE":"U","ARG_OF_PERICENTER":"39.7845","ELEMENT_SET_NO":"999","NORAD_CAT_ID":"50829","OBJECT_TYPE":"PAYLOAD","MEAN_ANOMALY":"320.3291"},{"TLE_LINE2":"2 50830  53.2180   9.1470 0001793  44.0986 316.0149 15.08820850 42286","EPHEMERIS_TYPE":"0","INCLINATION":"53.2180","COUNTRY_CODE":"US","BSTAR":"-0.00005478100000","PERIOD":"95.439","OBJECT_NAME":"STARLINK-3278","RA_OF_ASC_NODE":"9.1470","RCS_SIZE":"LARGE","EPOCH":"2022-10-11T11:15:57.853440","OBJECT_TYPE":"PAYLOAD","MEAN_ANOMALY":"316.0149","REF_FRAME":"TEME","CENTER_NAME":"EARTH","CLASSIFICATION_TYPE":"U","ELEMENT_SET_NO":"999","NORAD_CAT_ID":"50830","ARG_OF_PERICENTER":"44.0986","ECCENTRICITY":"0.00017930","SITE":"AFETR","MEAN_MOTION":"15.08820850","REV_AT_EPOCH":"4228","OBJECT_ID":"2022-001AD","APOAPSIS":"541.044","LAUNCH_DATE":"2022-01-06","PERIAPSIS":"538.564","FILE":"3603543","MEAN_MOTION_DOT":"-0.00001159","TIME_SYSTEM":"UTC","DECAY_DATE":null,"TLE_LINE1":"1 50830U 22001AD  22284.46941960 -.00001159  00000-0 -54781-4 0  9995","GP_ID":"214784284","SEMIMAJOR_AXIS":"6917.939","MEAN_ELEMENT_THEORY":"SGP4","MEAN_MOTION_DDOT":"0.0000000000000"},{"CLASSIFICATION_TYPE":"U","CENTER_NAME":"EARTH","REF_FRAME":"TEME","NORAD_CAT_ID":"50831","ELEMENT_SET_NO":"999","ARG_OF_PERICENTER":"35.8725","OBJECT_TYPE":"PAYLOAD","MEAN_ANOMALY":"324.2423","RCS_SIZE":"LARGE","EPOCH":"2022-10-11T16:10:06.604320","INCLINATION":"53.2196","EPHEMERIS_TYPE":"0","TLE_LINE2":"2 50831  53.2196 358.2153 0002325  35.8725 324.2423 15.08817929 42459","COUNTRY_CODE":"US","PERIOD":"95.439","BSTAR":"-0.00035766000000","RA_OF_ASC_NODE":"358.2153","OBJECT_NAME":"STARLINK-3299","SEMIMAJOR_AXIS":"6917.948","MEAN_ELEMENT_THEORY":"SGP4","MEAN_MOTION_DDOT":"0.0000000000000","TIME_SYSTEM":"UTC","MEAN_MOTION_DOT":"-0.00005973","DECAY_DATE":null,"TLE_LINE1":"1 50831U 22001AE  22284.67368755 -.00005973  00000-0 -35766-3 0  9993","GP_ID":"214824507","SITE":"AFETR","ECCENTRICITY":"0.00023250","MEAN_MOTION":"15.08817929","REV_AT_EPOCH":"4245","OBJECT_ID":"2022-001AE","PERIAPSIS":"538.204","LAUNCH_DATE":"2022-01-06","APOAPSIS":"541.421","FILE":"3604484"}];
